FLOCK 4G-8              
1 62613U 25009E   26068.72381419  .00013559  00000+0  50438-3 0  9996
2 62613  97.4045 151.2834 0003050 315.2538  44.8455 15.27623414 63721
STARLINK-36512          
1 67504U 26012M   26068.02805500  .00037528  00000+0  13655-2 0  9991
2 67504  43.0007 317.8769 0001212 256.6036 103.4681 15.27601615  7669
