[{"OBJECT_NAME":"FLOCK 4G-8","OBJECT_ID":"2025-009E","EPOCH":"2026-03-09T17:22:17.546016","MEAN_MOTION":15.27623414,"ECCENTRICITY":0.00030503,"INCLINATION":97.4045,"RA_OF_ASC_NODE":151.2834,"ARG_OF_PERICENTER":315.2538,"MEAN_ANOMALY":44.8455,"EPHEMERIS_TYPE":0,"CLASSIFICATION_TYPE":"U","NORAD_CAT_ID":62613,"ELEMENT_SET_NO":999,"REV_AT_EPOCH":6372,"BSTAR":0.0005043806,"MEAN_MOTION_DOT":0.00013559,"MEAN_MOTION_DDOT":0},{"OBJECT_NAME":"STARLINK-36512","OBJECT_ID":"2026-012M","EPOCH":"2026-03-09T00:40:23.952000","MEAN_MOTION":15.27601615,"ECCENTRICITY":0.00012128,"INCLINATION":43.0007,"RA_OF_ASC_NODE":317.8769,"ARG_OF_PERICENTER":256.6036,"MEAN_ANOMALY":103.4681,"EPHEMERIS_TYPE":0,"CLASSIFICATION_TYPE":"U","NORAD_CAT_ID":67504,"ELEMENT_SET_NO":999,"REV_AT_EPOCH":766,"BSTAR":0.0013654582,"MEAN_MOTION_DOT":0.00037528,"MEAN_MOTION_DDOT":0}]
